DMSP 5D-3 F16 (USA 172) 
1 28054U 03048A   26167.89338056 -.00000021  00000+0  12618-4 0  9993
2 28054  98.9890 191.7198 0007749 141.0283 339.7595 14.14483161169444
METEOSAT-9 (MSG-2)      
1 28912U 05049B   26167.76518994  .00000116  00000+0  00000+0 0  9997
2 28912   9.3608  54.1728 0001615 343.7501 188.2137  1.00271877  6990
DMSP 5D-3 F17 (USA 191) 
1 29522U 06050A   26167.81613979 -.00000006  00000+0  19417-4 0  9999
2 29522  98.7378 174.3938 0011178  60.3787 299.8499 14.14993040 12376
FENGYUN 3A              
1 32958U 08026A   26167.76539573  .00000050  00000+0  44318-4 0  9998
2 32958  98.6883 108.6064 0009574 124.7763 235.4315 14.19571060935342
GOES 14                 
1 35491U 09033A   26167.78428799 -.00000293  00000+0  00000+0 0  9996
2 35491   1.6895  83.0460 0001742  11.3319 235.0763  1.00110913  6587
DMSP 5D-3 F18 (USA 210) 
1 35951U 09057A   26167.85821066  .00000220  00000+0  13720-3 0  9991
2 35951  98.9037 148.6280 0009891 250.5797 109.4307 14.14896590859544
EWS-G2 (GOES 15)        
1 36411U 10008A   26167.76874330  .00000014  00000+0  00000+0 0  9997
2 36411   1.2770  82.8674 0005405  42.2597 120.3736  1.00275891 59630
COMS 1                  
1 36744U 10032A   26167.77099663  .00000053  00000+0  00000+0 0  9995
2 36744   4.8043  75.3592 0011483  11.8077 170.5357  0.99162490 51089
FENGYUN 3B              
1 37214U 10059A   26167.90140233 -.00000282  00000+0 -12234-3 0  9994
2 37214  98.9619 213.9146 0021880 184.7596 348.0356 14.14840425807384
SUOMI NPP               
1 37849U 11061A   26167.84714097  .00000045  00000+0  42306-4 0  9999
2 37849  98.7953 108.7255 0001554   7.5604 352.5595 14.19517265758396
METEOSAT-10 (MSG-3)     
1 38552U 12035B   26166.90073081 -.00000006  00000+0  00000+0 0  9998
2 38552   4.6688  61.0268 0001452 328.0735 199.6782  1.00276584 50842
METOP-B                 
1 38771U 12049A   26167.83766836  .00000093  00000+0  62281-4 0  9995
2 38771  98.6505 219.3438 0002259  20.6024 339.5244 14.21432669713215
INSAT-3D                
1 39216U 13038B   26167.78177463 -.00000343  00000+0  00000+0 0  9990
2 39216   1.9255  82.5442 0000560 311.3198 282.1305  1.00269313 47071
FENGYUN 3C              
1 39260U 13052A   26167.83179425  .00000054  00000+0  48557-4 0  9993
2 39260  98.4986 141.7229 0015278  28.5931 331.6079 14.15754894658515
METEOR-M 2              
1 40069U 14037A   26167.86404343 -.00000236  00000+0 -88867-4 0  9991
2 40069  98.5109 143.6137 0006760  45.4754 314.6975 14.21460245619275
HIMAWARI-8              
1 40267U 14060A   26167.78402799 -.00000278  00000+0  00000+0 0  9994
2 40267   0.0158 359.9150 0000992  89.2732 238.7759  1.00271710 42756
FENGYUN 2G              
1 40367U 14090A   26167.77588127 -.00000308  00000+0  00000+0 0  9991
2 40367   5.6375  72.8180 0004095 156.3445  54.8771  1.00272344 41998
METEOSAT-11 (MSG-4)     
1 40732U 15034A   26167.75807976  .00000061  00000+0  00000+0 0  9995
2 40732   3.2002  71.1126 0001751  11.1942 105.2805  1.00280240  7213
ELEKTRO-L 2             
1 41105U 15074A   26167.63786162 -.00000124  00000+0  00000+0 0  9995
2 41105   6.6931  70.5258 0000972 242.2635 167.2330  1.00270425 38506
SENTINEL-3A             
1 41335U 16011A   26167.86590524  .00000087  00000+0  53907-4 0  9998
2 41335  98.6249 235.2542 0001402 102.2979 257.8359 14.26739891538012
INSAT-3DR               
1 41752U 16054A   26167.69948788 -.00000079  00000+0  00000+0 0  9991
2 41752   0.1054  86.4163 0010610 187.4266 316.9088  1.00270862 35819
HIMAWARI-9              
1 41836U 16064A   26167.78402799 -.00000277  00000+0  00000+0 0  9992
2 41836   0.0197 277.3882 0000894 213.8870 196.7861  1.00270813 35208
GOES 16                 
1 41866U 16071A   26167.66416924 -.00000093  00000+0  00000+0 0  9991
2 41866   0.3404  85.5183 0000218 303.9999   9.8198  1.00270961 35099
FENGYUN 4A              
1 41882U 16077A   26167.78064797 -.00000361  00000+0  00000+0 0  9993
2 41882   2.3211  80.2786 0008713 153.3989  76.1610  1.00268694 34927
CYGFM05                 
1 41884U 16078A   26167.60226194  .00018684  00000+0  25356-3 0  9999
2 41884  34.9568 264.4637 0006927 145.3362 214.7815 15.56650505528665
CYGFM04                 
1 41885U 16078B   26167.57468470  .00023651  00000+0  26669-3 0  9999
2 41885  34.9314 232.3673 0006598 189.8115 170.2483 15.61485848528908
CYGFM02                 
1 41886U 16078C   26167.57654184  .00027611  00000+0  27656-3 0  9996
2 41886  34.9393 226.9084 0007626 190.6958 169.3607 15.64470617529076
CYGFM01                 
1 41887U 16078D   26167.65533646  .00020003  00000+0  26456-3 0  9990
2 41887  34.9397 265.1736 0006710 139.4098 220.7127 15.57329199528628
CYGFM08                 
1 41888U 16078E   26167.61573062  .00022367  00000+0  26707-3 0  9997
2 41888  34.9423 245.0304 0008283 171.8547 188.2313 15.59994653528881
CYGFM07                 
1 41890U 16078G   26167.57490553  .00021512  00000+0  25608-3 0  9998
2 41890  34.9435 233.6447 0007030 188.5559 171.5048 15.60091379528903
CYGFM03                 
1 41891U 16078H   26167.86585821  .00023685  00000+0  28178-3 0  9992
2 41891  34.9390 233.6449 0006493 179.3164 180.7571 15.60098311528926
